STARLINK-36784          
1 67877U 26034AD  26074.71723565  .00220360  00000+0  10881-2 0  9997
2 67877  53.1590 180.9093 0001207 130.3087 229.8041 15.80945873  4899
STARLINK-36689          
1 67878U 26034AE  26074.52682959  .00238692  00000+0  11780-2 0  9994
2 67878  53.1585 181.8545 0000936 122.2134 237.8980 15.80905091  4863
STARLINK-36818          
1 67879U 26035A   26074.91668981 -.00135615  00000+0 -92039-3 0  9998
2 67879  97.2865   7.6030 0001051  99.1460 218.3938 15.75251872  4751
STARLINK-36821          
1 67880U 26035B   26074.91668981 -.00176730  00000+0 -12047-2 0  9993
2 67880  97.2861   7.6087 0001279 100.1468 233.4135 15.75264455  4752
STARLINK-36808          
1 67881U 26035C   26074.91668981 -.00062266  00000+0 -32580-3 0  9997
2 67881  97.2875   7.6148 0001396  82.4589 272.7452 15.80872537  4752
STARLINK-36817          
1 67882U 26035D   26074.91668981 -.00037283  00000+0 -19429-3 0  9996
2 67882  97.2878   7.6185 0001000 129.1225 238.8952 15.80865532  4761
STARLINK-36856          
1 67883U 26035E   26074.91668981 -.00070729  00000+0 -37040-3 0  9998
2 67883  97.2876   7.6172 0000690  87.2822 276.4552 15.80882520  4756
STARLINK-36842          
1 67884U 26035F   26074.91668981 -.00148634  00000+0 -10100-2 0  9997
2 67884  97.2862   7.6134 0001541  80.3483 269.1889 15.75258731  4761
STARLINK-36826          
1 67885U 26035G   26074.91668981 -.00088956  00000+0 -46682-3 0  9993
2 67885  97.2876   7.6212 0001551  42.0731 334.4812 15.80889413  4761
STARLINK-36390          
1 67886U 26035H   26074.91668981  .00117158  00000+0  77642-3 0  9999
2 67886  97.2861   7.6179 0000688 130.9349 230.5567 15.75166445  4805
STARLINK-36368          
1 67887U 26035J   26074.91668981 -.00000766  00000+0 -32552-5 0  9991
2 67887  97.2877   7.6243 0001286 111.5647 273.5719 15.80834634  4765
STARLINK-36801          
1 67888U 26035K   26074.66668981  .00129509  00000+0  66804-3 0  9994
2 67888  97.2879   7.3621 0001301  93.9962 313.6448 15.80777776  4719
STARLINK-36372          
1 67889U 26035L   26074.34033656  .00496091  00000+0  24423-2 0  9998
2 67889  97.2838   7.0150 0001306  91.1248 269.0170 15.80850475  4737
STARLINK-36363          
1 67890U 26035M   26074.91668981 -.00181544  00000+0 -12391-2 0  9995
2 67890  97.2858   7.6251 0001009 106.9937 274.5780 15.75250433  4762
STARLINK-36816          
1 67891U 26035N   26074.58377611  .00448876  00000+0  22117-2 0  9995
2 67891  97.2857   7.2946 0003047  66.9114 293.2475 15.80954909  4770
STARLINK-36813          
1 67892U 26035P   26074.77817887  .00539304  00000+0  26170-2 0  9991
2 67892  97.2818   7.4865 0002101 122.9421 237.2050 15.81057877  4804
