[{"OBJECT_NAME":"STARLINK-36784","OBJECT_ID":"2026-034AD","EPOCH":"2026-03-15T17:12:49.160160","MEAN_MOTION":15.80945873,"ECCENTRICITY":0.00012079,"INCLINATION":53.159,"RA_OF_ASC_NODE":180.9093,"ARG_OF_PERICENTER":130.3087,"MEAN_ANOMALY":229.8041,"EPHEMERIS_TYPE":0,"CLASSIFICATION_TYPE":"U","NORAD_CAT_ID":67877,"ELEMENT_SET_NO":999,"REV_AT_EPOCH":489,"BSTAR":0.0010880781,"MEAN_MOTION_DOT":0.0022036,"MEAN_MOTION_DDOT":0},{"OBJECT_NAME":"STARLINK-36689","OBJECT_ID":"2026-034AE","EPOCH":"2026-03-15T12:38:38.076576","MEAN_MOTION":15.80905091,"ECCENTRICITY":9.369e-5,"INCLINATION":53.1585,"RA_OF_ASC_NODE":181.8545,"ARG_OF_PERICENTER":122.2134,"MEAN_ANOMALY":237.898,"EPHEMERIS_TYPE":0,"CLASSIFICATION_TYPE":"U","NORAD_CAT_ID":67878,"ELEMENT_SET_NO":999,"REV_AT_EPOCH":486,"BSTAR":0.001177993,"MEAN_MOTION_DOT":0.00238692,"MEAN_MOTION_DDOT":0},{"OBJECT_NAME":"STARLINK-36818","OBJECT_ID":"2026-035A","EPOCH":"2026-03-15T22:00:01.999584","MEAN_MOTION":15.75251872,"ECCENTRICITY":0.00010511,"INCLINATION":97.2865,"RA_OF_ASC_NODE":7.603,"ARG_OF_PERICENTER":99.146,"MEAN_ANOMALY":218.3938,"EPHEMERIS_TYPE":0,"CLASSIFICATION_TYPE":"U","NORAD_CAT_ID":67879,"ELEMENT_SET_NO":999,"REV_AT_EPOCH":475,"BSTAR":-0.00092038842,"MEAN_MOTION_DOT":-0.00135615,"MEAN_MOTION_DDOT":0},{"OBJECT_NAME":"STARLINK-36821","OBJECT_ID":"2026-035B","EPOCH":"2026-03-15T22:00:01.999584","MEAN_MOTION":15.75264455,"ECCENTRICITY":0.00012794,"INCLINATION":97.2861,"RA_OF_ASC_NODE":7.6087,"ARG_OF_PERICENTER":100.1468,"MEAN_ANOMALY":233.4135,"EPHEMERIS_TYPE":0,"CLASSIFICATION_TYPE":"U","NORAD_CAT_ID":67880,"ELEMENT_SET_NO":999,"REV_AT_EPOCH":475,"BSTAR":-0.0012047464,"MEAN_MOTION_DOT":-0.0017673,"MEAN_MOTION_DDOT":0},{"OBJECT_NAME":"STARLINK-36808","OBJECT_ID":"2026-035C","EPOCH":"2026-03-15T22:00:01.999584","MEAN_MOTION":15.80872537,"ECCENTRICITY":0.00013969,"INCLINATION":97.2875,"RA_OF_ASC_NODE":7.6148,"ARG_OF_PERICENTER":82.4589,"MEAN_ANOMALY":272.7452,"EPHEMERIS_TYPE":0,"CLASSIFICATION_TYPE":"U","NORAD_CAT_ID":67881,"ELEMENT_SET_NO":999,"REV_AT_EPOCH":475,"BSTAR":-0.00032579615,"MEAN_MOTION_DOT":-0.00062266,"MEAN_MOTION_DDOT":0},{"OBJECT_NAME":"STARLINK-36817","OBJECT_ID":"2026-035D","EPOCH":"2026-03-15T22:00:01.999584","MEAN_MOTION":15.80865532,"ECCENTRICITY":0.00010008,"INCLINATION":97.2878,"RA_OF_ASC_NODE":7.6185,"ARG_OF_PERICENTER":129.1225,"MEAN_ANOMALY":238.8952,"EPHEMERIS_TYPE":0,"CLASSIFICATION_TYPE":"U","NORAD_CAT_ID":67882,"ELEMENT_SET_NO":999,"REV_AT_EPOCH":476,"BSTAR":-0.00019429444,"MEAN_MOTION_DOT":-0.00037283,"MEAN_MOTION_DDOT":0},{"OBJECT_NAME":"STARLINK-36856","OBJECT_ID":"2026-035E","EPOCH":"2026-03-15T22:00:01.999584","MEAN_MOTION":15.8088252,"ECCENTRICITY":6.9e-5,"INCLINATION":97.2876,"RA_OF_ASC_NODE":7.6172,"ARG_OF_PERICENTER":87.2822,"MEAN_ANOMALY":276.4552,"EPHEMERIS_TYPE":0,"CLASSIFICATION_TYPE":"U","NORAD_CAT_ID":67883,"ELEMENT_SET_NO":999,"REV_AT_EPOCH":475,"BSTAR":-0.00037039854,"MEAN_MOTION_DOT":-0.00070729,"MEAN_MOTION_DDOT":0},{"OBJECT_NAME":"STARLINK-36842","OBJECT_ID":"2026-035F","EPOCH":"2026-03-15T22:00:01.999584","MEAN_MOTION":15.75258731,"ECCENTRICITY":0.00015419,"INCLINATION":97.2862,"RA_OF_ASC_NODE":7.6134,"ARG_OF_PERICENTER":80.3483,"MEAN_ANOMALY":269.1889,"EPHEMERIS_TYPE":0,"CLASSIFICATION_TYPE":"U","NORAD_CAT_ID":67884,"ELEMENT_SET_NO":999,"REV_AT_EPOCH":476,"BSTAR":-0.0010099899,"MEAN_MOTION_DOT":-0.00148634,"MEAN_MOTION_DDOT":0},{"OBJECT_NAME":"STARLINK-36826","OBJECT_ID":"2026-035G","EPOCH":"2026-03-15T22:00:01.999584","MEAN_MOTION":15.80889413,"ECCENTRICITY":0.00015514,"INCLINATION":97.2876,"RA_OF_ASC_NODE":7.6212,"ARG_OF_PERICENTER":42.0731,"MEAN_ANOMALY":334.4812,"EPHEMERIS_TYPE":0,"CLASSIFICATION_TYPE":"U","NORAD_CAT_ID":67885,"ELEMENT_SET_NO":999,"REV_AT_EPOCH":476,"BSTAR":-0.00046681892,"MEAN_MOTION_DOT":-0.00088956,"MEAN_MOTION_DDOT":0},{"OBJECT_NAME":"STARLINK-36390","OBJECT_ID":"2026-035H","EPOCH":"2026-03-15T22:00:01.999584","MEAN_MOTION":15.75166445,"ECCENTRICITY":6.884e-5,"INCLINATION":97.2861,"RA_OF_ASC_NODE":7.6179,"ARG_OF_PERICENTER":130.9349,"MEAN_ANOMALY":230.5567,"EPHEMERIS_TYPE":0,"CLASSIFICATION_TYPE":"U","NORAD_CAT_ID":67886,"ELEMENT_SET_NO":999,"REV_AT_EPOCH":480,"BSTAR":0.00077642101,"MEAN_MOTION_DOT":0.00117158,"MEAN_MOTION_DDOT":0},{"OBJECT_NAME":"STARLINK-36368","OBJECT_ID":"2026-035J","EPOCH":"2026-03-15T22:00:01.999584","MEAN_MOTION":15.80834634,"ECCENTRICITY":0.00012863,"INCLINATION":97.2877,"RA_OF_ASC_NODE":7.6243,"ARG_OF_PERICENTER":111.5647,"MEAN_ANOMALY":273.5719,"EPHEMERIS_TYPE":0,"CLASSIFICATION_TYPE":"U","NORAD_CAT_ID":67887,"ELEMENT_SET_NO":999,"REV_AT_EPOCH":476,"BSTAR":-3.255188e-6,"MEAN_MOTION_DOT":-7.66e-6,"MEAN_MOTION_DDOT":0},{"OBJECT_NAME":"STARLINK-36801","OBJECT_ID":"2026-035K","EPOCH":"2026-03-15T16:00:01.999584","MEAN_MOTION":15.80777776,"ECCENTRICITY":0.0001301,"INCLINATION":97.2879,"RA_OF_ASC_NODE":7.3621,"ARG_OF_PERICENTER":93.9962,"MEAN_ANOMALY":313.6448,"EPHEMERIS_TYPE":0,"CLASSIFICATION_TYPE":"U","NORAD_CAT_ID":67888,"ELEMENT_SET_NO":999,"REV_AT_EPOCH":471,"BSTAR":0.0006680403,"MEAN_MOTION_DOT":0.00129509,"MEAN_MOTION_DDOT":0},{"OBJECT_NAME":"STARLINK-36372","OBJECT_ID":"2026-035L","EPOCH":"2026-03-15T08:10:05.078784","MEAN_MOTION":15.80850475,"ECCENTRICITY":0.00013064,"INCLINATION":97.2838,"RA_OF_ASC_NODE":7.015,"ARG_OF_PERICENTER":91.1248,"MEAN_ANOMALY":269.017,"EPHEMERIS_TYPE":0,"CLASSIFICATION_TYPE":"U","NORAD_CAT_ID":67889,"ELEMENT_SET_NO":999,"REV_AT_EPOCH":473,"BSTAR":0.0024423244,"MEAN_MOTION_DOT":0.00496091,"MEAN_MOTION_DDOT":0},{"OBJECT_NAME":"STARLINK-36363","OBJECT_ID":"2026-035M","EPOCH":"2026-03-15T22:00:01.999584","MEAN_MOTION":15.75250433,"ECCENTRICITY":0.00010098,"INCLINATION":97.2858,"RA_OF_ASC_NODE":7.6251,"ARG_OF_PERICENTER":106.9937,"MEAN_ANOMALY":274.578,"EPHEMERIS_TYPE":0,"CLASSIFICATION_TYPE":"U","NORAD_CAT_ID":67890,"ELEMENT_SET_NO":999,"REV_AT_EPOCH":476,"BSTAR":-0.0012390796,"MEAN_MOTION_DOT":-0.00181544,"MEAN_MOTION_DDOT":0},{"OBJECT_NAME":"STARLINK-36816","OBJECT_ID":"2026-035N","EPOCH":"2026-03-15T14:00:38.255904","MEAN_MOTION":15.80954909,"ECCENTRICITY":0.00030473,"INCLINATION":97.2857,"RA_OF_ASC_NODE":7.2946,"ARG_OF_PERICENTER":66.9114,"MEAN_ANOMALY":293.2475,"EPHEMERIS_TYPE":0,"CLASSIFICATION_TYPE":"U","NORAD_CAT_ID":67891,"ELEMENT_SET_NO":999,"REV_AT_EPOCH":477,"BSTAR":0.0022116605,"MEAN_MOTION_DOT":0.00448876,"MEAN_MOTION_DDOT":0},{"OBJECT_NAME":"STARLINK-36813","OBJECT_ID":"2026-035P","EPOCH":"2026-03-15T18:40:34.654368","MEAN_MOTION":15.81057877,"ECCENTRICITY":0.0002101,"INCLINATION":97.2818,"RA_OF_ASC_NODE":7.4865,"ARG_OF_PERICENTER":122.9421,"MEAN_ANOMALY":237.205,"EPHEMERIS_TYPE":0,"CLASSIFICATION_TYPE":"U","NORAD_CAT_ID":67892,"ELEMENT_SET_NO":999,"REV_AT_EPOCH":480,"BSTAR":0.0026170085,"MEAN_MOTION_DOT":0.00539304,"MEAN_MOTION_DDOT":0}]
